{"type": "FeatureCollection", "name": "rute", "crs": {"type": "name", "properties": {"name": "urn:ogc:def:crs:OGC:1.3:CRS84"}}, "features": [{"type": "Feature", "properties": {"trip_id": 1, "nama": "Trip 1", "kendaraan": "Pickup boks", "kode_kendaraan": "K-06", "trayek": "Serang – Cilegon", "arah": "Cilegon ke Serang", "hari": "Senin", "tanggal": "03-03-2025", "jam_mulai": "06:20", "jam_selesai": "07:07", "jam_berangkat": 6, "durasi_menit": 47.5, "kecepatan_rata": 36.1, "kecepatan_maks": 44.5, "jumlah_titik": 96, "jarak_km": 28.58, "liter_total": 3.45, "liter_jalan": 3.45, "liter_idle": 0.0, "menit_idle": 0.0, "liter_per_100km": 12.06, "km_per_liter": 8.29, "biaya_rp": 23435, "liter_boros": 0.27, "biaya_boros_rp": 1839, "jenis_bbm": "Biosolar", "harga_per_liter": 6800, "malam": false}, "geometry": {"type": "LineString", "coordinates": [[106.025901, -6.002738], [106.022982, -6.002625], [106.022573, -5.999849], [106.022615, -5.997337], [106.023955, -5.995954], [106.027036, -5.995611], [106.028722, -5.993504], [106.031072, -5.994327], [106.032952, -5.99652], [106.036318, -6.001645], [106.039548, -6.005816], [106.040853, -6.008436], [106.042198, -6.010501], [106.044083, -6.012056], [106.048354, -6.014962], [106.051024, -6.016475], [106.061391, -6.020942], [106.067214, -6.023821], [106.076539, -6.029928], [106.081109, -6.033197], [106.08326, -6.034218], [106.084549, -6.032062], [106.085315, -6.029209], [106.085631, -6.026748], [106.087302, -6.024386], [106.091693, -6.022044], [106.09382, -6.023541], [106.097734, -6.02854], [106.10249, -6.036136], [106.105565, -6.040292], [106.107264, -6.042126], [106.115712, -6.049855], [106.117779, -6.052248], [106.122275, -6.059499], [106.134403, -6.08236], [106.13595, -6.084213], [106.137915, -6.085678], [106.140334, -6.086776], [106.162192, -6.094356], [106.167466, -6.097178], [106.17155, -6.10028], [106.180722, -6.109851], [106.183086, -6.112613], [106.184047, -6.114293], [106.181948, -6.117545], [106.181542, -6.119681], [106.182885, -6.120431], [106.18849, -6.120327]]}}, {"type": "Feature", "properties": {"trip_id": 2, "nama": "Trip 2", "kendaraan": "Pickup boks", "kode_kendaraan": "K-06", "trayek": "Serang – Cilegon", "arah": "Cilegon ke Serang", "hari": "Senin", "tanggal": "03-03-2025", "jam_mulai": "11:34", "jam_selesai": "12:14", "jam_berangkat": 11, "durasi_menit": 40.0, "kecepatan_rata": 42.9, "kecepatan_maks": 50.0, "jumlah_titik": 81, "jarak_km": 28.6, "liter_total": 3.3, "liter_jalan": 3.3, "liter_idle": 0.0, "menit_idle": 0.0, "liter_per_100km": 11.53, "km_per_liter": 8.67, "biaya_rp": 22424, "liter_boros": 0.12, "biaya_boros_rp": 813, "jenis_bbm": "Biosolar", "harga_per_liter": 6800, "malam": false}, "geometry": {"type": "LineString", "coordinates": [[106.025269, -6.002713], [106.022541, -6.001817], [106.022592, -5.998713], [106.023624, -5.995963], [106.026909, -5.9957], [106.029111, -5.993477], [106.031927, -5.995235], [106.035236, -6.000121], [106.03924, -6.005418], [106.040902, -6.008716], [106.042977, -6.011202], [106.048478, -6.015034], [106.050921, -6.01643], [106.061061, -6.0208], [106.067451, -6.023941], [106.082421, -6.033873], [106.084234, -6.032588], [106.085326, -6.029119], [106.085692, -6.026274], [106.088115, -6.023957], [106.091173, -6.021972], [106.093469, -6.023124], [106.096983, -6.027342], [106.1018, -6.035034], [106.105594, -6.040331], [106.107976, -6.042767], [106.115026, -6.049159], [106.117199, -6.051499], [106.118954, -6.053907], [106.121744, -6.058497], [106.135006, -6.083226], [106.137162, -6.085286], [106.139595, -6.086523], [106.159492, -6.093348], [106.162831, -6.094683], [106.167966, -6.097558], [106.170672, -6.099613], [106.173143, -6.101903], [106.182464, -6.11184], [106.184045, -6.114298], [106.182356, -6.116801], [106.181562, -6.11945], [106.183956, -6.120411], [106.18849, -6.120327]]}}, {"type": "Feature", "properties": {"trip_id": 3, "nama": "Trip 3", "kendaraan": "Pickup boks", "kode_kendaraan": "K-06", "trayek": "Serang – Cilegon", "arah": "Cilegon ke Serang", "hari": "Senin", "tanggal": "03-03-2025", "jam_mulai": "15:00", "jam_selesai": "15:52", "jam_berangkat": 15, "durasi_menit": 52.5, "kecepatan_rata": 32.5, "kecepatan_maks": 37.4, "jumlah_titik": 106, "jarak_km": 28.43, "liter_total": 3.54, "liter_jalan": 3.54, "liter_idle": 0.0, "menit_idle": 0.0, "liter_per_100km": 12.45, "km_per_liter": 8.03, "biaya_rp": 24064, "liter_boros": 0.38, "biaya_boros_rp": 2582, "jenis_bbm": "Biosolar", "harga_per_liter": 6800, "malam": false}, "geometry": {"type": "LineString", "coordinates": [[106.026216, -6.00275], [106.024217, -6.002673], [106.02254, -6.001854], [106.022617, -5.997234], [106.024133, -5.99595], [106.02651, -5.995886], [106.028374, -5.993985], [106.030578, -5.993865], [106.032035, -5.99537], [106.035983, -6.001212], [106.039215, -6.005386], [106.040335, -6.007072], [106.041184, -6.009588], [106.042954, -6.011181], [106.047471, -6.014415], [106.051345, -6.016613], [106.062453, -6.021421], [106.0668, -6.023612], [106.077048, -6.030265], [106.081173, -6.03323], [106.083438, -6.03392], [106.084872, -6.031522], [106.085636, -6.026705], [106.086232, -6.02495], [106.090195, -6.022656], [106.092105, -6.022275], [106.093729, -6.023433], [106.096691, -6.026956], [106.103022, -6.036934], [106.106077, -6.040968], [106.114876, -6.049006], [106.11674, -6.050906], [106.118314, -6.05294], [106.122026, -6.059029], [106.13477, -6.082979], [106.136514, -6.084802], [106.140307, -6.086767], [106.160324, -6.093633], [106.166836, -6.09673], [106.172385, -6.101108], [106.180765, -6.109896], [106.184154, -6.113996], [106.181693, -6.118268], [106.181971, -6.120448], [106.18849, -6.120327]]}}]}