{"type": "FeatureCollection", "name": "titik_ujung", "crs": {"type": "name", "properties": {"name": "urn:ogc:def:crs:OGC:1.3:CRS84"}}, "features": [{"type": "Feature", "properties": {"trip_id": 1, "jenis": "Titik Awal", "hari": "Senin", "waktu": "03-03-2025 06:20", "jarak_km": 28.58, "liter_total": 3.45, "biaya_rp": 23435}, "geometry": {"type": "Point", "coordinates": [106.025901, -6.002738]}}, {"type": "Feature", "properties": {"trip_id": 1, "jenis": "Titik Akhir", "hari": "Senin", "waktu": "03-03-2025 07:07", "jarak_km": 28.58, "liter_total": 3.45, "biaya_rp": 23435}, "geometry": {"type": "Point", "coordinates": [106.18849, -6.120327]}}, {"type": "Feature", "properties": {"trip_id": 2, "jenis": "Titik Awal", "hari": "Senin", "waktu": "03-03-2025 11:34", "jarak_km": 28.6, "liter_total": 3.3, "biaya_rp": 22424}, "geometry": {"type": "Point", "coordinates": [106.025269, -6.002713]}}, {"type": "Feature", "properties": {"trip_id": 2, "jenis": "Titik Akhir", "hari": "Senin", "waktu": "03-03-2025 12:14", "jarak_km": 28.6, "liter_total": 3.3, "biaya_rp": 22424}, "geometry": {"type": "Point", "coordinates": [106.18849, -6.120327]}}, {"type": "Feature", "properties": {"trip_id": 3, "jenis": "Titik Awal", "hari": "Senin", "waktu": "03-03-2025 15:00", "jarak_km": 28.43, "liter_total": 3.54, "biaya_rp": 24064}, "geometry": {"type": "Point", "coordinates": [106.026216, -6.00275]}}, {"type": "Feature", "properties": {"trip_id": 3, "jenis": "Titik Akhir", "hari": "Senin", "waktu": "03-03-2025 15:52", "jarak_km": 28.43, "liter_total": 3.54, "biaya_rp": 24064}, "geometry": {"type": "Point", "coordinates": [106.18849, -6.120327]}}]}